start=new Date('2022-12-25T00:00:00.000Z').valueOf();
sats=[{"SEMIMAJOR_AXIS":"6917.878","CENTER_NAME":"EARTH","MEAN_ANOMALY":"331.6859","APOAPSIS":"541.743","RCS_SIZE":"LARGE","TIME_SYSTEM":"UTC","MEAN_MOTION_DDOT":"0.0000000000000","RA_OF_ASC_NODE":"5.6581","REV_AT_EPOCH":"5876","EPOCH":"2022-12-24T18:04:23.494944","INCLINATION":"53.2170","BSTAR":"0.00014842000000","DECAY_DATE":null,"PERIAPSIS":"537.742","MEAN_MOTION_DOT":"0.00002075","FILE":"3721442","COUNTRY_CODE":"US","GP_ID":"221381289","EPHEMERIS_TYPE":"0","OBJECT_ID":"2021-115Q","SITE":"AFETR","ELEMENT_SET_NO":"999","CLASSIFICATION_TYPE":"U","REF_FRAME":"TEME","ARG_OF_PERICENTER":"28.4291","TLE_LINE2":"2 49738  53.2170   5.6581 0002892  28.4291 331.6859 15.08840890 58767","OBJECT_NAME":"STARLINK-3143","ECCENTRICITY":"0.00028920","OBJECT_TYPE":"PAYLOAD","NORAD_CAT_ID":"49738","LAUNCH_DATE":"2021-12-02","PERIOD":"95.437","MEAN_ELEMENT_THEORY":"SGP4","TLE_LINE1":"1 49738U 21115Q   22358.75304971  .00002075  00000-0  14842-3 0  9993","MEAN_MOTION":"15.08840890"},{"SITE":"AFETR","ELEMENT_SET_NO":"999","EPHEMERIS_TYPE":"0","OBJECT_ID":"2021-115R","GP_ID":"221349780","OBJECT_TYPE":"PAYLOAD","ECCENTRICITY":"0.00016350","OBJECT_NAME":"STARLINK-3155","TLE_LINE2":"2 49739  53.2148  16.9457 0001635  70.3423 289.7746 15.08854619 58578","ARG_OF_PERICENTER":"70.3423","REF_FRAME":"TEME","CLASSIFICATION_TYPE":"U","MEAN_ELEMENT_THEORY":"SGP4","PERIOD":"95.437","LAUNCH_DATE":"2021-12-02","NORAD_CAT_ID":"49739","MEAN_MOTION":"15.08854619","TLE_LINE1":"1 49739U 21115R   22358.46877647  .00009794  00000-0  63231-3 0  9998","RA_OF_ASC_NODE":"16.9457","MEAN_MOTION_DDOT":"0.0000000000000","TIME_SYSTEM":"UTC","APOAPSIS":"540.832","RCS_SIZE":"LARGE","MEAN_ANOMALY":"289.7746","SEMIMAJOR_AXIS":"6917.836","CENTER_NAME":"EARTH","INCLINATION":"53.2148","EPOCH":"2022-12-24T11:15:02.287008","REV_AT_EPOCH":"5857","COUNTRY_CODE":"US","FILE":"3721189","MEAN_MOTION_DOT":"0.00009794","PERIAPSIS":"538.570","DECAY_DATE":null,"BSTAR":"0.00063231000000"},{"GP_ID":"221379789","OBJECT_ID":"2021-115S","EPHEMERIS_TYPE":"0","SITE":"AFETR","ELEMENT_SET_NO":"999","CLASSIFICATION_TYPE":"U","REF_FRAME":"TEME","ARG_OF_PERICENTER":"29.0470","TLE_LINE2":"2 49740  53.2166   5.6077 0002859  29.0470 331.0681 15.08850214 58762","OBJECT_NAME":"STARLINK-3226","ECCENTRICITY":"0.00028590","OBJECT_TYPE":"PAYLOAD","LAUNCH_DATE":"2021-12-02","NORAD_CAT_ID":"49740","PERIOD":"95.437","MEAN_ELEMENT_THEORY":"SGP4","TLE_LINE1":"1 49740U 21115S   22358.76408716  .00005785  00000-0  38115-3 0  9999","MEAN_MOTION":"15.08850214","SEMIMAJOR_AXIS":"6917.849","MEAN_ANOMALY":"331.0681","CENTER_NAME":"EARTH","APOAPSIS":"541.692","RCS_SIZE":"LARGE","TIME_SYSTEM":"UTC","MEAN_MOTION_DDOT":"0.0000000000000","RA_OF_ASC_NODE":"5.6077","REV_AT_EPOCH":"5876","EPOCH":"2022-12-24T18:20:17.130624","INCLINATION":"53.2166","BSTAR":"0.00038115000000","DECAY_DATE":null,"PERIAPSIS":"537.736","MEAN_MOTION_DOT":"0.00005785","FILE":"3721442","COUNTRY_CODE":"US"},{"APOAPSIS":"541.855","RCS_SIZE":"LARGE","CENTER_NAME":"EARTH","SEMIMAJOR_AXIS":"6917.847","MEAN_ANOMALY":"330.1331","RA_OF_ASC_NODE":"5.6367","MEAN_MOTION_DDOT":"0.0000000000000","TIME_SYSTEM":"UTC","PERIAPSIS":"537.570","DECAY_DATE":null,"BSTAR":"0.00025174000000","COUNTRY_CODE":"US","FILE":"3721442","MEAN_MOTION_DOT":"0.00003721","REV_AT_EPOCH":"5876","INCLINATION":"53.2176","EPOCH":"2022-12-24T18:09:41.827104","TLE_LINE2":"2 49741  53.2176   5.6367 0003097  29.9838 330.1331 15.08850773 58760","OBJECT_NAME":"STARLINK-3244","ARG_OF_PERICENTER":"29.9838","REF_FRAME":"TEME","CLASSIFICATION_TYPE":"U","OBJECT_TYPE":"PAYLOAD","ECCENTRICITY":"0.00030970","GP_ID":"221380039","SITE":"AFETR","ELEMENT_SET_NO":"999","OBJECT_ID":"2021-115T","EPHEMERIS_TYPE":"0","TLE_LINE1":"1 49741U 21115T   22358.75673411  .00003721  00000-0  25174-3 0  9994","MEAN_MOTION":"15.08850773","NORAD_CAT_ID":"49741","LAUNCH_DATE":"2021-12-02","MEAN_ELEMENT_THEORY":"SGP4","PERIOD":"95.437"},{"MEAN_MOTION_DDOT":"0.0000000000000","TIME_SYSTEM":"UTC","RA_OF_ASC_NODE":"7.0662","MEAN_ANOMALY":"331.5067","SEMIMAJOR_AXIS":"6917.827","CENTER_NAME":"EARTH","APOAPSIS":"541.600","RCS_SIZE":"LARGE","MEAN_MOTION_DOT":"0.00001386","COUNTRY_CODE":"US","FILE":"3721189","PERIAPSIS":"537.785","BSTAR":"0.00010512000000","DECAY_DATE":null,"INCLINATION":"53.2180","EPOCH":"2022-12-24T10:33:57.168000","REV_AT_EPOCH":"5871","ECCENTRICITY":"0.00027580","OBJECT_TYPE":"PAYLOAD","CLASSIFICATION_TYPE":"U","TLE_LINE2":"2 49742  53.2180   7.0662 0002758  28.6076 331.5067 15.08857312 58715","OBJECT_NAME":"STARLINK-3202","REF_FRAME":"TEME","ARG_OF_PERICENTER":"28.6076","OBJECT_ID":"2021-115U","EPHEMERIS_TYPE":"0","ELEMENT_SET_NO":"999","SITE":"AFETR","GP_ID":"221349531","MEAN_MOTION":"15.08857312","TLE_LINE1":"1 49742U 21115U   22358.44024500  .00001386  00000-0  10512-3 0  9995","PERIOD":"95.436","MEAN_ELEMENT_THEORY":"SGP4","NORAD_CAT_ID":"49742","LAUNCH_DATE":"2021-12-02"},{"EPOCH":"2022-12-24T18:14:59.135424","INCLINATION":"53.2174","REV_AT_EPOCH":"5876","MEAN_MOTION_DOT":"0.00001394","FILE":"3721442","COUNTRY_CODE":"US","DECAY_DATE":null,"BSTAR":"0.00010568000000","PERIAPSIS":"537.794","TIME_SYSTEM":"UTC","MEAN_MOTION_DDOT":"0.0000000000000","RA_OF_ASC_NODE":"5.6276","MEAN_ANOMALY":"327.4228","SEMIMAJOR_AXIS":"6917.873","CENTER_NAME":"EARTH","RCS_SIZE":"LARGE","APOAPSIS":"541.683","PERIOD":"95.437","MEAN_ELEMENT_THEORY":"SGP4","LAUNCH_DATE":"2021-12-02","NORAD_CAT_ID":"49743","MEAN_MOTION":"15.08842305","TLE_LINE1":"1 49743U 21115V   22358.76040666  .00001394  00000-0  10568-3 0  9992","EPHEMERIS_TYPE":"0","OBJECT_ID":"2021-115V","SITE":"AFETR","ELEMENT_SET_NO":"999","GP_ID":"221381540","ECCENTRICITY":"0.00028110","OBJECT_TYPE":"PAYLOAD","CLASSIFICATION_TYPE":"U","REF_FRAME":"TEME","ARG_OF_PERICENTER":"32.6938","OBJECT_NAME":"STARLINK-3239","TLE_LINE2":"2 49743  53.2174   5.6276 0002811  32.6938 327.4228 15.08842305 58760"},{"MEAN_MOTION":"15.08845731","TLE_LINE1":"1 49744U 21115W   22358.51385008  .00002205  00000-0  15659-3 0  9996","MEAN_ELEMENT_THEORY":"SGP4","PERIOD":"95.437","NORAD_CAT_ID":"49744","LAUNCH_DATE":"2021-12-02","OBJECT_TYPE":"PAYLOAD","ECCENTRICITY":"0.00028650","TLE_LINE2":"2 49744  53.2180   6.7291 0002865  25.8861 334.2274 15.08845731 58724","OBJECT_NAME":"STARLINK-3231","ARG_OF_PERICENTER":"25.8861","REF_FRAME":"TEME","CLASSIFICATION_TYPE":"U","SITE":"AFETR","ELEMENT_SET_NO":"999","EPHEMERIS_TYPE":"0","OBJECT_ID":"2021-115W","GP_ID":"221380288","COUNTRY_CODE":"US","FILE":"3721442","MEAN_MOTION_DOT":"0.00002205","PERIAPSIS":"537.746","DECAY_DATE":null,"BSTAR":"0.00015659000000","INCLINATION":"53.2180","EPOCH":"2022-12-24T12:19:56.646912","REV_AT_EPOCH":"5872","RA_OF_ASC_NODE":"6.7291","MEAN_MOTION_DDOT":"0.0000000000000","TIME_SYSTEM":"UTC","RCS_SIZE":"MEDIUM","APOAPSIS":"541.710","CENTER_NAME":"EARTH","SEMIMAJOR_AXIS":"6917.863","MEAN_ANOMALY":"334.2274"},{"NORAD_CAT_ID":"49745","LAUNCH_DATE":"2021-12-02","MEAN_ELEMENT_THEORY":"SGP4","PERIOD":"95.438","TLE_LINE1":"1 49745U 21115X   22358.76777364 -.00000169  00000-0  74798-5 0  9993","MEAN_MOTION":"15.08839298","GP_ID":"221380538","ELEMENT_SET_NO":"999","SITE":"AFETR","EPHEMERIS_TYPE":"0","OBJECT_ID":"2021-115X","TLE_LINE2":"2 49745  53.2162   5.6012 0002593  29.9547 330.1593 15.08839298 58762","OBJECT_NAME":"STARLINK-3241","REF_FRAME":"TEME","ARG_OF_PERICENTER":"29.9547","CLASSIFICATION_TYPE":"U","OBJECT_TYPE":"PAYLOAD","ECCENTRICITY":"0.00025930","REV_AT_EPOCH":"5876","INCLINATION":"53.2162","EPOCH":"2022-12-24T18:25:35.642496","PERIAPSIS":"537.954","BSTAR":"0.00000747980000","DECAY_DATE":null,"COUNTRY_CODE":"US","FILE":"3721442","MEAN_MOTION_DOT":"-0.00000169","RCS_SIZE":"LARGE","APOAPSIS":"541.541","MEAN_ANOMALY":"330.1593","SEMIMAJOR_AXIS":"6917.883","CENTER_NAME":"EARTH","RA_OF_ASC_NODE":"5.6012","MEAN_MOTION_DDOT":"0.0000000000000","TIME_SYSTEM":"UTC"},{"EPHEMERIS_TYPE":"0","OBJECT_ID":"2021-115Y","ELEMENT_SET_NO":"999","SITE":"AFETR","GP_ID":"221381290","ECCENTRICITY":"0.00028750","OBJECT_TYPE":"PAYLOAD","CLASSIFICATION_TYPE":"U","OBJECT_NAME":"STARLINK-3233","TLE_LINE2":"2 49746  53.2185   5.7997 0002875  25.3416 334.7716 15.08849779 58750","REF_FRAME":"TEME","ARG_OF_PERICENTER":"25.3416","PERIOD":"95.437","MEAN_ELEMENT_THEORY":"SGP4","NORAD_CAT_ID":"49746","LAUNCH_DATE":"2021-12-02","MEAN_MOTION":"15.08849779","TLE_LINE1":"1 49746U 21115Y   22358.71992741  .00002293  00000-0  16212-3 0  9991","MEAN_MOTION_DDOT":"0.0000000000000","TIME_SYSTEM":"UTC","RA_OF_ASC_NODE":"5.7997","SEMIMAJOR_AXIS":"6917.850","CENTER_NAME":"EARTH","MEAN_ANOMALY":"334.7716","RCS_SIZE":"MEDIUM","APOAPSIS":"541.704","INCLINATION":"53.2185","EPOCH":"2022-12-24T17:16:41.728224","REV_AT_EPOCH":"5875","MEAN_MOTION_DOT":"0.00002293","COUNTRY_CODE":"US","FILE":"3721442","PERIAPSIS":"537.727","DECAY_DATE":null,"BSTAR":"0.00016212000000"},{"MEAN_MOTION_DOT":"0.00001797","FILE":"3721189","COUNTRY_CODE":"US","DECAY_DATE":null,"BSTAR":"0.00013096000000","PERIAPSIS":"537.732","EPOCH":"2022-12-24T10:39:15.129504","INCLINATION":"53.2200","REV_AT_EPOCH":"5871","TIME_SYSTEM":"UTC","MEAN_MOTION_DDOT":"0.0000000000000","RA_OF_ASC_NODE":"7.0516","MEAN_ANOMALY":"332.3318","SEMIMAJOR_AXIS":"6917.869","CENTER_NAME":"EARTH","RCS_SIZE":"LARGE","APOAPSIS":"541.736","MEAN_MOTION":"15.08843624","TLE_LINE1":"1 49747U 21115Z   22358.44392511  .00001797  00000-0  13096-3 0  9996","PERIOD":"95.437","MEAN_ELEMENT_THEORY":"SGP4","LAUNCH_DATE":"2021-12-02","NORAD_CAT_ID":"49747","ECCENTRICITY":"0.00028940","OBJECT_TYPE":"PAYLOAD","CLASSIFICATION_TYPE":"U","REF_FRAME":"TEME","ARG_OF_PERICENTER":"27.7828","TLE_LINE2":"2 49747  53.2200   7.0516 0002894  27.7828 332.3318 15.08843624 58716","OBJECT_NAME":"STARLINK-3247","EPHEMERIS_TYPE":"0","OBJECT_ID":"2021-115Z","SITE":"AFETR","ELEMENT_SET_NO":"999","GP_ID":"221349781"}];
